NORAD_CAT_ID,OBJECT_NAME,OBJECT_TYPE,EPOCH,MEAN_MOTION,ECCENTRICITY,INCLINATION,RA_OF_ASC_NODE,ARG_OF_PERICENTER,MEAN_ANOMALY,BSTAR,MEAN_MOTION_DOT,MEAN_MOTION_DDOT,TLE_LINE0,TLE_LINE1,TLE_LINE2,SEMIMAJOR_AXIS,PERIOD,APOGEE,PERIGEE,DECAYED
49158.0,STARLINK-3083,PAYLOAD,2023-04-11 21:39:33,15.01175938,0.0005322,69.9994,73.73,274.2734,85.7819,0.0011607,0.00014854,0.0,0 STARLINK-3083,1 49158U 21082AE  23101.90247476  .00014854  00000-0  11607-2 0  9995,2 49158  69.9994  73.7300 0005322 274.2734  85.7819 15.01175938 88381,6941.406,95.925,566.965,559.577,0.0
49158.0,STARLINK-3083,PAYLOAD,2023-04-12 04:03:22,15.01184621,0.0005329,69.9994,73.0548,274.748,85.3071,0.0011464,0.00014672,0.0,0 STARLINK-3083,1 49158U 21082AE  23102.16900739  .00014672  00000-0  11464-2 0  9991,2 49158  69.9994  73.0548 0005329 274.7480  85.3071 15.01184621 88428,6941.379,95.924,566.943,559.545,0.0
49158.0,STARLINK-3083,PAYLOAD,2023-04-12 07:15:17,15.01117534,0.0005218,69.9993,72.717,276.6788,83.3778,-0.0019245,-0.00024707,0.0,0 STARLINK-3083,1 49158U 21082AE  23102.30229094 -.00024707  00000-0 -19245-2 0  9992,2 49158  69.9993  72.7170 0005218 276.6788  83.3778 15.01117534 88446,6941.586,95.929,567.073,559.829,0.0
49158.0,STARLINK-3083,PAYLOAD,2023-04-13 07:14:49,15.00685519,0.0003619,69.9998,70.1869,307.3656,52.7174,-0.016634,-0.00205102,0.0,0 STARLINK-3083,1 49158U 21082AE  23103.30196274 -.00205102  00000-0 -16634-1 0  9994,2 49158  69.9998  70.1869 0003619 307.3656  52.7174 15.00685519 88595,6942.918,95.956,567.296,562.271,0.0
49158.0,STARLINK-3083,PAYLOAD,2023-04-13 20:03:03,14.99899541,0.0003529,69.999,68.8385,268.9474,91.1282,-0.03267,-0.00384706,0.0,0 STARLINK-3083,1 49158U 21082AE  23103.83546172 -.00384706  00000-0 -32670-1 0  9994,2 49158  69.9990  68.8385 0003529 268.9474  91.1282 14.99899541 88679,6945.343,96.006,569.659,564.757,0.0
49158.0,STARLINK-3083,PAYLOAD,2023-04-14 14:00:01,14.97718712,0.0003103,69.9986,66.9497,271.9171,161.9482,-0.028147,-0.00316187,0.0,0 STARLINK-3083,1 49158U 21082AE  23104.58335648 -.00316187  00000-0 -28147-1 0  9993,2 49158  69.9986  66.9497 0003103 271.9171 161.9482 14.97718712  1304,6952.084,96.146,576.106,571.792,0.0
49158.0,STARLINK-3083,PAYLOAD,2023-04-14 22:00:00,14.97527932,0.000319,69.999,66.1101,268.4925,161.9121,-0.00019829,-2.409e-05,0.0,0 STARLINK-3083,1 49158U 21082AE  23104.91667824 -.00002409  00000-0 -19829-3 0  9992,2 49158  69.9990  66.1101 0003190 268.4925 161.9121 14.97527932 88832,6952.674,96.158,576.757,572.321,0.0
49158.0,STARLINK-3083,PAYLOAD,2023-04-15 14:00:01,14.9752459,0.0003175,69.9987,64.431,270.6067,152.833,-0.0013797,-0.00016179,0.0,0 STARLINK-3083,1 49158U 21082AE  23105.58334491 -.00016179  00000-0 -13797-2 0  9993,2 49158  69.9987  64.4310 0003175 270.6067 152.8330 14.97524590  1301,6952.685,96.159,576.757,572.342,0.0
49158.0,STARLINK-3083,PAYLOAD,2023-04-15 22:00:01,14.97552303,0.0003256,69.9991,63.5915,267.6221,152.3964,0.00037992,4.354e-05,0.0,0 STARLINK-3083,1 49158U 21082AE  23105.91668981  .00004354  00000-0  37992-3 0  9998,2 49158  69.9991  63.5915 0003256 267.6221 152.3964 14.97552303  1306,6952.599,96.157,576.728,572.2,0.0
49158.0,STARLINK-3083,PAYLOAD,2023-04-16 14:00:01,14.97494565,0.0003232,69.9988,61.9124,274.6607,138.3743,-8.2904e-06,-1.89e-06,0.0,0 STARLINK-3083,1 49158U 21082AE  23106.58334491 -.00000189  00000-0 -82904-5 0  9997,2 49158  69.9988  61.9124 0003232 274.6607 138.3743 14.97494565 89081,6952.778,96.161,576.89,572.395,0.0
49158.0,STARLINK-3083,PAYLOAD,2023-04-16 22:00:00,14.97523302,0.0003276,69.9992,61.073,271.3189,138.1916,0.0010157,0.00011797,0.0,0 STARLINK-3083,1 49158U 21082AE  23106.91667824  .00011797  00000-0  10157-2 0  9996,2 49158  69.9992  61.0730 0003276 271.3189 138.1916 14.97523302  1308,6952.689,96.159,576.831,572.276,0.0
49158.0,STARLINK-3083,PAYLOAD,2023-04-17 06:00:00,14.97514239,0.0003271,69.9991,60.2335,276.5415,129.4821,6.6336e-05,6.83e-06,0.0,0 STARLINK-3083,1 49158U 21082AE  23107.25001157  .00000683  00000-0  66336-4 0  9999,2 49158  69.9991  60.2335 0003271 276.5415 129.4821 14.97514239 89182,6952.717,96.159,576.856,572.307,0.0
49158.0,STARLINK-3083,PAYLOAD,2023-04-17 14:00:01,14.97508729,0.0003194,69.999,59.394,271.724,130.8106,0.0004677,5.375e-05,0.0,0 STARLINK-3083,1 49158U 21082AE  23107.58334491  .00005375  00000-0  46770-3 0  9997,2 49158  69.9990  59.3940 0003194 271.7240 130.8106 14.97508729  1306,6952.734,96.16,576.819,572.378,0.0
49158.0,STARLINK-3083,PAYLOAD,2023-04-17 22:00:00,14.97546915,0.0003246,69.9995,58.5545,268.8329,130.2004,0.00043065,4.947e-05,0.0,0 STARLINK-3083,1 49158U 21082AE  23107.91667824  .00004947  00000-0  43065-3 0  9991,2 49158  69.9995  58.5545 0003246 268.8329 130.2004 14.97546915  1306,6952.616,96.157,576.737,572.224,0.0
49158.0,STARLINK-3083,PAYLOAD,2023-04-18 07:26:43,14.97532338,0.0002925,70.0001,57.5634,266.3726,93.7098,0.00072018,8.336e-05,0.0,0 STARLINK-3083,1 49158U 21082AE  23108.31022245  .00008336  00000-0  72018-3 0  9994,2 49158  70.0001  57.5634 0002925 266.3726  93.7098 14.97532338 89342,6952.661,96.158,576.559,572.492,0.0
49158.0,STARLINK-3083,PAYLOAD,2023-04-19 01:04:46,14.97522619,0.0002661,70.0007,55.7123,259.9786,100.1072,0.00025626,2.904e-05,0.0,0 STARLINK-3083,1 49158U 21082AE  23109.04498255  .00002904  00000-0  25626-3 0  9991,2 49158  70.0007  55.7123 0002661 259.9786 100.1072 14.97522619 89450,6952.691,96.159,576.406,572.706,0.0
49158.0,STARLINK-3083,PAYLOAD,2023-04-19 05:53:20,14.97522725,0.0002681,70.0007,55.2077,260.7095,99.376,0.00021959,2.475e-05,0.0,0 STARLINK-3083,1 49158U 21082AE  23109.24537084  .00002475  00000-0  21959-3 0  9995,2 49158  70.0007  55.2077 0002681 260.7095  99.3760 14.97522725 89482,6952.69,96.159,576.419,572.691,0.0
49158.0,STARLINK-3083,PAYLOAD,2023-04-20 02:43:44,14.97536915,0.0003145,70.0003,53.0236,269.0255,91.0543,0.0004168,4.783e-05,0.0,0 STARLINK-3083,1 49158U 21082AE  23110.11371098  .00004783  00000-0  41680-3 0  9991,2 49158  70.0003  53.0236 0003145 269.0255  91.0543 14.97536915 89616,6952.647,96.158,576.698,572.325,0.0
49158.0,STARLINK-3083,PAYLOAD,2023-04-20 05:56:06,14.9754014,0.0002964,70.0008,52.6866,267.7971,92.2848,0.00061696,7.128e-05,0.0,0 STARLINK-3083,1 49158U 21082AE  23110.24730201  .00007128  00000-0  61696-3 0  9995,2 49158  70.0008  52.6866 0002964 267.7971  92.2848 14.97540140 89631,6952.637,96.158,576.562,572.441,0.0
49158.0,STARLINK-3083,PAYLOAD,2023-04-21 02:46:33,14.9751217,0.0003508,70.0007,50.4992,266.9794,93.0963,-0.00016311,-1.997e-05,0.0,0 STARLINK-3083,1 49158U 21082AE  23111.11566144 -.00001997  00000-0 -16311-3 0  9999,2 49158  70.0007  50.4992 0003508 266.9794  93.0963 14.97512170 89768,6952.723,96.159,577.027,572.149,0.0
49158.0,STARLINK-3083,PAYLOAD,2023-04-21 05:58:55,14.97515676,0.0003048,70.0007,50.1623,264.767,95.3141,-3.2406e-05,-4.71e-06,0.0,0 STARLINK-3083,1 49158U 21082AE  23111.24925362 -.00000471  00000-0 -32406-4 0  9994,2 49158  70.0007  50.1623 0003048 264.7670  95.3141 14.97515676 89783,6952.712,96.159,576.696,572.458,0.0
49158.0,STARLINK-3083,PAYLOAD,2023-04-22 02:49:20,14.97537189,0.0003233,70.0004,47.9759,263.5318,96.5472,0.00068095,7.877e-05,0.0,0 STARLINK-3083,1 49158U 21082AE  23112.11759578  .00007877  00000-0  68095-3 0  9992,2 49158  70.0004  47.9759 0003233 263.5318  96.5472 14.97537189 89914,6952.646,96.158,576.758,572.263,0.0
49158.0,STARLINK-3083,PAYLOAD,2023-04-23 04:28:19,14.97535352,0.000152,70.0015,45.2864,298.4943,61.6062,0.0004108,4.713e-05,0.0,0 STARLINK-3083,1 49158U 21082AE  23113.18633497  .00004713  00000-0  41080-3 0  9992,2 49158  70.0015  45.2864 0001520 298.4943  61.6062 14.97535352 90079,6952.651,96.158,575.573,573.46,0.0
49158.0,STARLINK-3083,PAYLOAD,2023-04-24 04:31:05,14.97571378,0.0002719,70.0004,42.7626,268.9546,91.1302,0.0021049,0.00024622,0.0,0 STARLINK-3083,1 49158U 21082AE  23114.18825933  .00024622  00000-0  21049-2 0  9994,2 49158  70.0004  42.7626 0002719 268.9546  91.1302 14.97571378 90227,6952.54,96.156,576.295,572.514,0.0
49158.0,STARLINK-3083,PAYLOAD,2023-04-25 04:33:51,14.97568811,0.0002875,70.0009,40.239,267.4901,92.5929,0.00085893,9.971e-05,0.0,0 STARLINK-3083,1 49158U 21082AE  23115.19017647  .00009971  00000-0  85893-3 0  9999,2 49158  70.0009  40.2390 0002875 267.4901  92.5929 14.97568811 90379,6952.548,96.156,576.412,572.414,0.0
49158.0,STARLINK-3083,PAYLOAD,2023-04-26 04:36:43,14.97437994,0.0002961,70.0015,37.7173,266.99,93.092,-0.0021709,-0.00025314,0.0,0 STARLINK-3083,1 49158U 21082AE  23116.19216598 -.00025314  00000-0 -21709-2 0  9992,2 49158  70.0015  37.7173 0002961 266.9900  93.0920 14.97437994 90526,6952.953,96.164,576.876,572.759,0.0
49158.0,STARLINK-3083,PAYLOAD,2023-04-27 01:27:07,14.9751985,0.0003265,70.0009,35.531,262.3219,97.7568,0.0011797,0.0001372,0.0,0 STARLINK-3083,1 49158U 21082AE  23117.06050432  .00013720  00000-0  11797-2 0  9994,2 49158  70.0009  35.5310 0003265 262.3219  97.7568 14.97519850 90654,6952.699,96.159,576.834,572.294,0.0
49158.0,STARLINK-3083,PAYLOAD,2023-04-27 06:15:41,14.97530055,0.0002976,70.0009,35.0242,261.7637,98.3184,0.0016033,0.00018697,0.0,0 STARLINK-3083,1 49158U 21082AE  23117.26089271  .00018697  00000-0  16033-2 0  9995,2 49158  70.0009  35.0242 0002976 261.7637  98.3184 14.97530055 90682,6952.668,96.158,576.602,572.464,0.0
49158.0,STARLINK-3083,PAYLOAD,2023-04-28 04:42:16,14.97557062,0.0002923,70.0006,32.6691,257.9306,102.1525,0.00095676,0.00011116,0.0,0 STARLINK-3083,1 49158U 21082AE  23118.19602608  .00011116  00000-0  95676-3 0  9993,2 49158  70.0006  32.6691 0002923 257.9306 102.1525 14.97557062 90828,6952.584,96.157,576.481,572.417,0.0
49158.0,STARLINK-3083,PAYLOAD,2023-04-28 11:07:01,14.9754033,0.0002538,70.0003,31.9972,264.4217,95.6653,-0.00052376,-6.21e-05,0.0,0 STARLINK-3083,1 49158U 21082AE  23118.46320971 -.00006210  00000-0 -52376-3 0  9994,2 49158  70.0003  31.9972 0002538 264.4217  95.6653 14.97540330 90867,6952.636,96.158,576.266,572.736,0.0
